OBJECT_NAME,OBJECT_ID,EPOCH,MEAN_MOTION,ECCENTRICITY,INCLINATION,RA_OF_ASC_NODE,ARG_OF_PERICENTER,MEAN_ANOMALY,EPHEMERIS_TYPE,CLASSIFICATION_TYPE,NORAD_CAT_ID,ELEMENT_SET_NO,REV_AT_EPOCH,BSTAR,MEAN_MOTION_DOT,MEAN_MOTION_DDOT
SAUDISAT 2,2004-025F,2026-07-04T06:28:41.048256,14.56693820,.00235565,98.5512,185.6936,243.0600,116.8191,0,U,28371,999,16823,.7954649E-4,.307E-5,0
COSMOS 2407,2004-028A,2026-07-03T18:55:53.589216,13.76335930,.00385437,82.9595,62.5378,204.1814,228.5597,0,U,28380,999,10216,.4256614E-4,.57E-6,0
COSMOS 2414,2005-002A,2026-07-03T19:54:12.100608,13.87927397,.00387187,82.9488,31.0557,282.4757,77.2075,0,U,28521,999,8612,.16929684E-4,.36E-6,0
INMARSAT 4-F1,2005-009A,2026-07-03T21:37:28.528032,1.00271768,.00028742,5.1885,42.7715,63.3071,318.3239,0,U,28628,999,7784,0,.42E-6,0
SJ-7,2005-024A,2026-07-03T14:18:34.033536,15.21792411,.00145482,97.7273,215.1431,340.9960,19.0731,0,U,28737,999,15052,.37976069E-3,.8571E-4,0
CUBESAT XI-V,2005-043F,2026-07-04T04:26:34.447488,14.72679968,.00147858,98.3004,341.1656,147.6619,212.5497,0,U,28895,999,10425,.28127005E-3,.1743E-4,0
HINODE (SOLAR-B),2006-041A,2026-07-04T06:52:21.063360,14.68647363,.00162625,98.0545,201.1867,230.7441,129.2322,0,U,29479,999,5738,.1563309E-3,.862E-5,0
SHIJIAN-6 02B (SJ-6 02B),2006-046B,2026-07-04T08:11:10.399776,15.01419390,.00147491,97.7147,214.2940,11.2798,348.8754,0,U,29506,999,7331,.11827057E-3,.1468E-4,0
DMSP 5D-3 F17 (USA 191),2006-050A,2026-07-04T06:45:48.835872,14.14995289,.00103859,98.7381,191.5022,13.9923,346.1537,0,U,29522,999,1484,.4837282E-4,.5E-6,0
LAPAN-TUBSAT,2007-001A,2026-07-04T06:58:43.995936,14.85968083,.0013252,98.1344,184.9009,125.9217,234.3229,0,U,29709,999,5369,.98818654E-4,.806E-5,0
HAIYANG-1B,2007-010A,2026-07-04T04:55:39.194400,14.31031222,.00141181,98.3505,166.3911,146.3401,213.8683,0,U,31113,999,307,.58815291E-4,.113E-5,0
COSMO-SKYMED 2,2007-059A,2026-07-04T07:24:32.523264,14.82160003,.00013305,97.8890,8.6585,91.0749,269.0616,0,U,32376,999,454,.67110023E-4,.482E-5,0
CARTOSAT-2A,2008-021A,2026-07-04T07:05:31.924032,14.79264788,.00131573,97.7619,233.4198,59.4813,300.7695,0,U,32783,999,98133,.12725346E-3,.897E-5,0
CUTE-1.7+APD II (CO-65),2008-021C,2026-07-04T05:14:22.345152,15.09621805,.00079593,97.8289,166.9933,343.0118,17.0843,0,U,32785,999,98776,.43804536E-3,.6983E-4,0
SEEDS II (CO-66),2008-021J,2026-07-03T10:53:24.291168,15.33316385,.00015908,97.7521,183.1342,184.9877,175.1349,0,U,32791,999,98978,.5788422E-3,.18577E-3,0
YUBILEINY (RS30),2008-025A,2026-07-04T05:46:00.981696,12.43180309,.0018501,82.5051,344.8301,274.5078,85.3888,0,U,32953,999,82181,.15242135E-3,.31E-6,0
FENGYUN 3A,2008-026A,2026-07-04T02:30:14.087808,14.19574733,.00098872,98.6885,125.6212,80.3156,279.9137,0,U,32958,999,93780,.65910645E-4,.96E-6,0
HUANJING 1A (HJ-1A),2008-041A,2026-07-04T07:01:29.928000,14.84026776,.00206501,97.6689,170.4705,82.4381,277.9179,0,U,33320,999,96094,.13615971E-3,.1087E-4,0
HUANJING 1B (HJ-1B),2008-041B,2026-07-04T06:28:14.062080,14.83350595,.00375736,97.6526,173.5683,125.6659,234.8063,0,U,33321,999,96094,.22156224E-3,.1786E-4,0
SHIJIAN-6 03A (SJ-6 03A),2008-053A,2026-07-04T07:52:06.279744,15.17329217,.00099061,97.8396,219.2456,319.7611,40.2887,0,U,33408,999,96556,.21191392E-3,.4158E-4,0
SHIJIAN-6 03B (SJ-6 03B),2008-053B,2026-07-04T07:51:37.528416,15.04360125,.00190483,97.8569,205.5023,347.7032,12.3726,0,U,33409,999,96532,.15178978E-3,.206E-4,0
